[{"OBJECT_NAME":"COSMOS 2493 (SKRL-756 1)","OBJECT_ID":"2013-078A","EPOCH":"2026-03-09T21:08:46.717728","MEAN_MOTION":15.01584319,"ECCENTRICITY":0.00118545,"INCLINATION":82.4165,"RA_OF_ASC_NODE":358.3033,"ARG_OF_PERICENTER":214.7485,"MEAN_ANOMALY":145.2966,"EPHEMERIS_TYPE":0,"CLASSIFICATION_TYPE":"U","NORAD_CAT_ID":39490,"ELEMENT_SET_NO":999,"REV_AT_EPOCH":66305,"BSTAR":0.00040276291,"MEAN_MOTION_DOT":5.252e-5,"MEAN_MOTION_DDOT":0},{"OBJECT_NAME":"STARLINK-5388","OBJECT_ID":"2022-177AA","EPOCH":"2026-03-09T05:41:58.864704","MEAN_MOTION":15.02516299,"ECCENTRICITY":0.00018359,"INCLINATION":43.0043,"RA_OF_ASC_NODE":135.2216,"ARG_OF_PERICENTER":281.4975,"MEAN_ANOMALY":78.5661,"EPHEMERIS_TYPE":0,"CLASSIFICATION_TYPE":"U","NORAD_CAT_ID":54844,"ELEMENT_SET_NO":999,"REV_AT_EPOCH":17689,"BSTAR":0.00013969843,"MEAN_MOTION_DOT":1.683e-5,"MEAN_MOTION_DDOT":0}]
