COSMOS 2493 (SKRL-756 1)
1 39490U 13078A   26068.88109627  .00005252  00000+0  40276-3 0  9992
2 39490  82.4165 358.3033 0011855 214.7485 145.2966 15.01584319663059
STARLINK-5388           
1 54844U 22177AA  26068.23748686  .00001683  00000+0  13970-3 0  9990
2 54844  43.0043 135.2216 0001835 281.4975  78.5661 15.02516299176898
